{
  "norad_id": 66691,
  "name": "TRANSPORTER-15 OBJECT AB",
  "history": [
    {
      "epoch": "2026-03-28T17:06:00.889920Z",
      "apogee_km": 509.42546579376085,
      "perigee_km": 505.06426492024457,
      "latitude_deg": -2.6072050678854065e-05,
      "longitude_deg": 80.04187732794132,
      "height_km": 509.99563868578304,
      "semi_major_axis_km": 6885.381865357002,
      "eccentricity": 0.0003167,
      "inclination_deg": 97.4251,
      "raan_deg": 162.6746,
      "arg_perigee_deg": 279.0304,
      "mean_anomaly_deg": 81.0572,
      "mean_motion_rev_day": 15.19535025
    },
    {
      "epoch": "2026-03-29T04:09:47.773440Z",
      "apogee_km": 509.40911691667407,
      "perigee_km": 504.9956143832924,
      "latitude_deg": -1.5994745015735047e-05,
      "longitude_deg": -85.90431422048258,
      "height_km": 510.0270022582487,
      "semi_major_axis_km": 6885.339365649983,
      "eccentricity": 0.0003205,
      "inclination_deg": 97.4252,
      "raan_deg": 163.1281,
      "arg_perigee_deg": 276.9883,
      "mean_anomaly_deg": 83.0987,
      "mean_motion_rev_day": 15.19549094
    }
  ]
}